ONEWEB-0275             
1 48993U 21060AC  25283.73141762  .00000069  00000+0  14689-3 0  9998
2 48993  87.8967 278.4780 0001782  90.5113 269.6222 13.16593332206736
ONEWEB-0276             
1 48994U 21060AD  25283.68865932  .00000022  00000+0  23122-4 0  9997
2 48994  87.8969 278.4849 0002009  92.9729 267.1631 13.16593289206746
ONEWEB-0277             
1 48995U 21060AE  25283.70135021 -.00000003  00000+0 -41104-4 0  9991
2 48995  87.8959 278.5132 0001640  92.6908 267.4411 13.16592955206735
ONEWEB-0278             
1 48996U 21060AF  25283.46384185 -.00000041  00000+0 -13968-3 0  9990
2 48996  87.8973 278.5263 0002148  89.1443 270.9934 13.16593991206837
ONEWEB-0279             
1 48997U 21060AG  25283.69973471  .00000007  00000+0 -16628-4 0  9996
2 48997  87.8975 278.4747 0001658  96.3052 263.8268 13.16595333206795
ONEWEB-0280             
1 48998U 21060AH  25283.48678897 -.00000132  00000+0 -37872-3 0  9991
2 48998  87.8975 278.5250 0002204  96.7086 263.4296 13.16592286206707
ONEWEB-0281             
1 48999U 21060AJ  25283.72032800 -.00000012  00000+0 -65799-4 0  9994
2 48999  87.8968 278.4748 0001789  86.4102 273.7233 13.16595855206804
ONEWEB-0282             
1 49000U 21060AK  25283.75041104  .00000039  00000+0  68780-4 0  9998
2 49000  87.8966 278.4798 0001867  93.9453 266.1892 13.16593384206789
